[{"OBJECT_NAME":"ASTROCAST-0401","OBJECT_ID":"2023-001DF","EPOCH":"2026-03-09T17:04:53.382144","MEAN_MOTION":15.26258462,"ECCENTRICITY":0.00081423,"INCLINATION":97.5547,"RA_OF_ASC_NODE":160.5206,"ARG_OF_PERICENTER":188.4231,"MEAN_ANOMALY":171.6872,"EPHEMERIS_TYPE":0,"CLASSIFICATION_TYPE":"U","NORAD_CAT_ID":55110,"ELEMENT_SET_NO":999,"REV_AT_EPOCH":17602,"BSTAR":0.00037868349,"MEAN_MOTION_DOT":9.75e-5,"MEAN_MOTION_DDOT":0},{"OBJECT_NAME":"STARLINK-30520","OBJECT_ID":"2023-153V","EPOCH":"2026-03-09T01:19:10.735104","MEAN_MOTION":15.27581814,"ECCENTRICITY":0.00015472,"INCLINATION":43.0017,"RA_OF_ASC_NODE":70.2477,"ARG_OF_PERICENTER":267.8325,"MEAN_ANOMALY":92.2349,"EPHEMERIS_TYPE":0,"CLASSIFICATION_TYPE":"U","NORAD_CAT_ID":58010,"ELEMENT_SET_NO":999,"REV_AT_EPOCH":13470,"BSTAR":3.2147036e-5,"MEAN_MOTION_DOT":6.23e-6,"MEAN_MOTION_DDOT":0}]
